ONEWEB-0319             
1 49105U 21075AG  24334.36018186  .00000105  00000+0  23815-3 0  9990
2 49105  87.9090 118.4066 0001848 109.6708 250.4623 13.17648382160217
ONEWEB-0323             
1 49106U 21075AH  24334.80945426  .00000442  00000+0  11924-2 0  9997
2 49106  87.8861 103.0382 0002184 117.9770 242.1579 13.12443868161529
ONEWEB-0329             
1 49107U 21075AJ  24334.36862182  .00000030  00000+0  43289-4 0  9990
2 49107  87.9093 118.4095 0001535 104.4680 255.6622 13.17649772160196
ONEWEB-0330             
1 49108U 21075AK  24334.37030631  .00000037  00000+0  62184-4 0  9990
2 49108  87.9091 118.4105 0001365 106.2988 253.8293 13.17650169160230
ONEWEB-0292             
1 49186U 21083A   24334.53593812 -.00000228  00000+0 -65917-3 0  9998
2 49186  87.8928  72.5688 0001845 105.5447 254.5886 13.13467526158091
ONEWEB-0303             
1 49187U 21083B   24334.25265354 -.00000005  00000+0 -45502-4 0  9997
2 49187  87.9108  87.8650 0001878 105.0625 255.0715 13.18686505156809
ONEWEB-0306             
1 49188U 21083C   24333.78790228  .00000221  00000+0  52895-3 0  9998
2 49188  87.9092  87.9438 0001482 101.4249 258.7050 13.18684753155501
ONEWEB-0307             
1 49189U 21083D   24334.53039326 -.00000180  00000+0 -52801-3 0  9991
2 49189  87.8944  72.5726 0001256 106.8439 253.2828 13.13467325158095
